{"type": "FeatureCollection", "features": [ {"type": "Feature", "properties": {"norad_id": 33825, "name": "COSMOS 2251 DEB", "group": "cosmos-2251-debris", "lat": 66.59260717294771, "lon": 56.45774713611969, "alt_km": 656.7905835462543, "timestamp": "2025-12-19T08:58:49.729759+00:00", "meta": {"OBJECT_NAME": "COSMOS 2251 DEB", "OBJECT_ID": "1993-036BS", "EPOCH": "2025-12-18T11:44:14.157600", "MEAN_MOTION": 14.69812495, "ECCENTRICITY": 0.00848399, "INCLINATION": 73.9848, "RA_OF_ASC_NODE": 16.6108, "ARG_OF_PERICENTER": 342.2776, "MEAN_ANOMALY": 87.8844, "EPHEMERIS_TYPE": 0, "CLASSIFICATION_TYPE": "U", "NORAD_CAT_ID": 33825, "ELEMENT_SET_NO": 999, "REV_AT_EPOCH": 88964, "BSTAR": 0.00063567363, "MEAN_MOTION_DOT": 3.979e-05, "MEAN_MOTION_DDOT": 0}, "tle": {"line1": "1 33825U 93036BS  25352.48905275  .00003979  00000+0  63567-3 0  9996", "line2": "2 33825  73.9848  16.6108 0084839 342.2776  87.8844 14.69812495889640"}}, "geometry": {"type": "Point", "coordinates": [56.45774713611969, 66.59260717294771]}}, {"type": "Feature", "properties": {"norad_id": 33826, "name": "COSMOS 2251 DEB", "group": "cosmos-2251-debris", "lat": -65.30860617907157, "lon": -104.17620692357478, "alt_km": 784.8077322046192, "timestamp": "2025-12-19T08:58:49.729769+00:00", "meta": {"OBJECT_NAME": "COSMOS 2251 DEB", "OBJECT_ID": "1993-036BT", "EPOCH": "2025-12-18T14:19:48.595008", "MEAN_MOTION": 14.51749978, "ECCENTRICITY": 0.00826875, "INCLINATION": 74.0648, "RA_OF_ASC_NODE": 38.8641, "ARG_OF_PERICENTER": 81.2775, "MEAN_ANOMALY": 69.7494, "EPHEMERIS_TYPE": 0, "CLASSIFICATION_TYPE": "U", "NORAD_CAT_ID": 33826, "ELEMENT_SET_NO": 999, "REV_AT_EPOCH": 87854, "BSTAR": 0.00046794376, "MEAN_MOTION_DOT": 1.938e-05, "MEAN_MOTION_DDOT": 0}, "tle": {"line1": "1 33826U 93036BT  25352.59709022  .00001938  00000+0  46794-3 0  9997", "line2": "2 33826  74.0648  38.8641 0082687  81.2775  69.7494 14.51749978878540"}}, "geometry": {"type": "Point", "coordinates": [-104.17620692357478, -65.30860617907157]}}, {"type": "Feature", "properties": {"norad_id": 33828, "name": "COSMOS 2251 DEB", "group": "cosmos-2251-debris", "lat": -27.82524944947317, "lon": -142.93082736465328, "alt_km": 732.0502002709254, "timestamp": "2025-12-19T08:58:49.729780+00:00", "meta": {"OBJECT_NAME": "COSMOS 2251 DEB", "OBJECT_ID": "1993-036BV", "EPOCH": "2025-12-18T18:27:21.669120", "MEAN_MOTION": 14.44350204, "ECCENTRICITY": 0.00294988, "INCLINATION": 74.0455, "RA_OF_ASC_NODE": 226.8785, "ARG_OF_PERICENTER": 298.8756, "MEAN_ANOMALY": 126.5128, "EPHEMERIS_TYPE": 0, "CLASSIFICATION_TYPE": "U", "NORAD_CAT_ID": 33828, "ELEMENT_SET_NO": 999, "REV_AT_EPOCH": 88400, "BSTAR": 0.00031287097, "MEAN_MOTION_DOT": 1.056e-05, "MEAN_MOTION_DDOT": 0}, "tle": {"line1": "1 33828U 93036BV  25352.76900080  .00001056  00000+0  31287-3 0  9997", "line2": "2 33828  74.0455 226.8785 0029498 298.8756 126.5128 14.44350204884008"}}, "geometry": {"type": "Point", "coordinates": [-142.93082736465328, -27.82524944947317]}}, {"type": "Feature", "properties": {"norad_id": 33830, "name": "COSMOS 2251 DEB", "group": "cosmos-2251-debris", "lat": -72.6488522425718, "lon": 103.77037743487391, "alt_km": 636.9610682155753, "timestamp": "2025-12-19T08:58:49.729790+00:00", "meta": {"OBJECT_NAME": "COSMOS 2251 DEB", "OBJECT_ID": "1993-036BX", "EPOCH": "2025-12-18T15:48:46.495008", "MEAN_MOTION": 14.76962393, "ECCENTRICITY": 0.00425343, "INCLINATION": 74.0317, "RA_OF_ASC_NODE": 218.7605, "ARG_OF_PERICENTER": 337.6056, "MEAN_ANOMALY": 84.1934, "EPHEMERIS_TYPE": 0, "CLASSIFICATION_TYPE": "U", "NORAD_CAT_ID": 33830, "ELEMENT_SET_NO": 999, "REV_AT_EPOCH": 89559, "BSTAR": 0.00055710545, "MEAN_MOTION_DOT": 3.949e-05, "MEAN_MOTION_DDOT": 0}, "tle": {"line1": "1 33830U 93036BX  25352.65887147  .00003949  00000+0  55711-3 0  9997", "line2": "2 33830  74.0317 218.7605 0042534 337.6056  84.1934 14.76962393895593"}}, "geometry": {"type": "Point", "coordinates": [103.77037743487391, -72.6488522425718]}}, {"type": "Feature", "properties": {"norad_id": 33832, "name": "COSMOS 2251 DEB", "group": "cosmos-2251-debris", "lat": -67.40085126964289, "lon": 153.92723320245872, "alt_km": 688.8384967288102, "timestamp": "2025-12-19T08:58:49.729801+00:00", "meta": {"OBJECT_NAME": "COSMOS 2251 DEB", "OBJECT_ID": "1993-036BZ", "EPOCH": "2025-12-18T22:22:00.885216", "MEAN_MOTION": 14.60716791, "ECCENTRICITY": 0.00244894, "INCLINATION": 74.053, "RA_OF_ASC_NODE": 198.1592, "ARG_OF_PERICENTER": 228.0559, "MEAN_ANOMALY": 253.3974, "EPHEMERIS_TYPE": 0, "CLASSIFICATION_TYPE": "U", "NORAD_CAT_ID": 33832, "ELEMENT_SET_NO": 999, "REV_AT_EPOCH": 88515, "BSTAR": 0.00099706536, "MEAN_MOTION_DOT": 4.854e-05, "MEAN_MOTION_DDOT": 0}, "tle": {"line1": "1 33832U 93036BZ  25352.93195469  .00004854  00000+0  99707-3 0  9998", "line2": "2 33832  74.0530 198.1592 0024489 228.0559 253.3974 14.60716791885155"}}, "geometry": {"type": "Point", "coordinates": [153.92723320245872, -67.40085126964289]}}, {"type": "Feature", "properties": {"norad_id": 33835, "name": "COSMOS 2251 DEB", "group": "cosmos-2251-debris", "lat": 19.465896390224284, "lon": -97.37875928796916, "alt_km": 649.4178272318377, "timestamp": "2025-12-19T08:58:49.729811+00:00", "meta": {"OBJECT_NAME": "COSMOS 2251 DEB", "OBJECT_ID": "1993-036CC", "EPOCH": "2025-12-18T18:11:26.319264", "MEAN_MOTION": 14.62307996, "ECCENTRICITY": 0.00541953, "INCLINATION": 74.0576, "RA_OF_ASC_NODE": 89.5981, "ARG_OF_PERICENTER": 141.4092, "MEAN_ANOMALY": 15.2384, "EPHEMERIS_TYPE": 0, "CLASSIFICATION_TYPE": "U", "NORAD_CAT_ID": 33835, "ELEMENT_SET_NO": 999, "REV_AT_EPOCH": 88877, "BSTAR": 0.00070685378, "MEAN_MOTION_DOT": 3.615e-05, "MEAN_MOTION_DDOT": 0}, "tle": {"line1": "1 33835U 93036CC  25352.75794351  .00003615  00000+0  70685-3 0  9994", "line2": "2 33835  74.0576  89.5981 0054195 141.4092  15.2384 14.62307996888776"}}, "geometry": {"type": "Point", "coordinates": [-97.37875928796916, 19.465896390224284]}}, {"type": "Feature", "properties": {"norad_id": 33836, "name": "COSMOS 2251 DEB", "group": "cosmos-2251-debris", "lat": -55.05908007605145, "lon": 90.11151230449472, "alt_km": 649.3640288086999, "timestamp": "2025-12-19T08:58:49.729821+00:00", "meta": {"OBJECT_NAME": "COSMOS 2251 DEB", "OBJECT_ID": "1993-036CD", "EPOCH": "2025-12-18T19:12:53.959392", "MEAN_MOTION": 14.79722686, "ECCENTRICITY": 0.00226963, "INCLINATION": 73.9973, "RA_OF_ASC_NODE": 246.9901, "ARG_OF_PERICENTER": 97.8562, "MEAN_ANOMALY": 326.3383, "EPHEMERIS_TYPE": 0, "CLASSIFICATION_TYPE": "U", "NORAD_CAT_ID": 33836, "ELEMENT_SET_NO": 999, "REV_AT_EPOCH": 64178, "BSTAR": 0.00088643672, "MEAN_MOTION_DOT": 6.663e-05, "MEAN_MOTION_DDOT": 0}, "tle": {"line1": "1 33836U 93036CD  25352.80062453  .00006663  00000+0  88644-3 0  9992", "line2": "2 33836  73.9973 246.9901 0022696  97.8562 326.3383 14.79722686641782"}}, "geometry": {"type": "Point", "coordinates": [90.11151230449472, -55.05908007605145]}}, {"type": "Feature", "properties": {"norad_id": 33837, "name": "COSMOS 2251 DEB", "group": "cosmos-2251-debris", "lat": -61.277455228541, "lon": -105.34693436974968, "alt_km": 705.8504342466786, "timestamp": "2025-12-19T08:58:49.729831+00:00", "meta": {"OBJECT_NAME": "COSMOS 2251 DEB", "OBJECT_ID": "1993-036CE", "EPOCH": "2025-12-18T13:38:35.943648", "MEAN_MOTION": 14.50713474, "ECCENTRICITY": 0.00359097, "INCLINATION": 74.0127, "RA_OF_ASC_NODE": 44.6244, "ARG_OF_PERICENTER": 265.4134, "MEAN_ANOMALY": 94.2924, "EPHEMERIS_TYPE": 0, "CLASSIFICATION_TYPE": "U", "NORAD_CAT_ID": 33837, "ELEMENT_SET_NO": 999, "REV_AT_EPOCH": 88880, "BSTAR": 0.00019377194, "MEAN_MOTION_DOT": 7.39e-06, "MEAN_MOTION_DDOT": 0}, "tle": {"line1": "1 33837U 93036CE  25352.56847157  .00000739  00000+0  19377-3 0  9993", "line2": "2 33837  74.0127  44.6244 0035909 265.4134  94.2924 14.50713474888800"}}, "geometry": {"type": "Point", "coordinates": [-105.34693436974968, -61.277455228541]}}, {"type": "Feature", "properties": {"norad_id": 33838, "name": "COSMOS 2251 DEB", "group": "cosmos-2251-debris", "lat": 58.67139422242214, "lon": 165.4409701343615, "alt_km": 743.7491624128443, "timestamp": "2025-12-19T08:58:49.729841+00:00", "meta": {"OBJECT_NAME": "COSMOS 2251 DEB", "OBJECT_ID": "1993-036CF", "EPOCH": "2025-12-18T20:00:12.340224", "MEAN_MOTION": 14.48380976, "ECCENTRICITY": 0.00275019, "INCLINATION": 74.0361, "RA_OF_ASC_NODE": 138.4014, "ARG_OF_PERICENTER": 259.447, "MEAN_ANOMALY": 224.9911, "EPHEMERIS_TYPE": 0, "CLASSIFICATION_TYPE": "U", "NORAD_CAT_ID": 33838, "ELEMENT_SET_NO": 999, "REV_AT_EPOCH": 88657, "BSTAR": 0.00031263295, "MEAN_MOTION_DOT": 1.148e-05, "MEAN_MOTION_DDOT": 0}, "tle": {"line1": "1 33838U 93036CF  25352.83347616  .00001148  00000+0  31263-3 0  9992", "line2": "2 33838  74.0361 138.4014 0027501 259.4470 224.9911 14.48380976886577"}}, "geometry": {"type": "Point", "coordinates": [165.4409701343615, 58.67139422242214]}}, {"type": "Feature", "properties": {"norad_id": 33839, "name": "COSMOS 2251 DEB", "group": "cosmos-2251-debris", "lat": 12.51757665189119, "lon": -162.62459262222757, "alt_km": 657.6287955252747, "timestamp": "2025-12-19T08:58:49.729851+00:00", "meta": {"OBJECT_NAME": "COSMOS 2251 DEB", "OBJECT_ID": "1993-036CG", "EPOCH": "2025-12-18T21:58:16.427424", "MEAN_MOTION": 14.64435067, "ECCENTRICITY": 0.00852706, "INCLINATION": 74.0377, "RA_OF_ASC_NODE": 194.6132, "ARG_OF_PERICENTER": 305.2636, "MEAN_ANOMALY": 169.6153, "EPHEMERIS_TYPE": 0, "CLASSIFICATION_TYPE": "U", "NORAD_CAT_ID": 33839, "ELEMENT_SET_NO": 999, "REV_AT_EPOCH": 89670, "BSTAR": 0.00015915017, "MEAN_MOTION_DOT": 8.53e-06, "MEAN_MOTION_DDOT": 0}, "tle": {"line1": "1 33839U 93036CG  25352.91546791  .00000853  00000+0  15915-3 0  9995", "line2": "2 33839  74.0377 194.6132 0085270 305.2636 169.6153 14.64435067896700"}}, "geometry": {"type": "Point", "coordinates": [-162.62459262222757, 12.51757665189119]}}]}